{"fetched_at":"2026-07-06T18:35:12.836Z","source":"https://celestrak.org/NORAD/elements/gp.php?GROUP=kuiper&FORMAT=JSON","constellation":"kuiper","records":[{"OBJECT_NAME":"KUIPER-00062","OBJECT_ID":"2025-134Y","EPOCH":"2026-07-05T22:41:10.462272","CLASSIFICATION_TYPE":"U","MEAN_MOTION":14.7994312,"ECCENTRICITY":0.0000701,"INCLINATION":51.8953,"RA_OF_ASC_NODE":67.6522,"ARG_OF_PERICENTER":111.3787,"MEAN_ANOMALY":248.725,"EPHEMERIS_TYPE":0,"NORAD_CAT_ID":64522,"ELEMENT_SET_NO":999,"REV_AT_EPOCH":5762,"BSTAR":0.00073586412,"MEAN_MOTION_DOT":0.00005394,"MEAN_MOTION_DDOT":0},{"OBJECT_NAME":"KUIPER-00063","OBJECT_ID":"2025-134Z","EPOCH":"2026-07-06T01:44:01.504032","CLASSIFICATION_TYPE":"U","MEAN_MOTION":14.79933954,"ECCENTRICITY":0.00008969,"INCLINATION":51.9013,"RA_OF_ASC_NODE":74.6402,"ARG_OF_PERICENTER":107.237,"MEAN_ANOMALY":252.869,"EPHEMERIS_TYPE":0,"NORAD_CAT_ID":64523,"ELEMENT_SET_NO":999,"REV_AT_EPOCH":5753,"BSTAR":0.00033270093,"MEAN_MOTION_DOT":0.00002316,"MEAN_MOTION_DDOT":0},{"OBJECT_NAME":"KUIPER-00064","OBJECT_ID":"2025-134AA","EPOCH":"2026-07-05T22:33:24.694560","CLASSIFICATION_TYPE":"U","MEAN_MOTION":14.79931668,"ECCENTRICITY":0.00005751,"INCLINATION":51.9008,"RA_OF_ASC_NODE":72.6477,"ARG_OF_PERICENTER":99.5822,"MEAN_ANOMALY":260.5205,"EPHEMERIS_TYPE":0,"NORAD_CAT_ID":64524,"ELEMENT_SET_NO":999,"REV_AT_EPOCH":5755,"BSTAR":0.00045294207,"MEAN_MOTION_DOT":0.00003233,"MEAN_MOTION_DDOT":0},{"OBJECT_NAME":"KUIPER-00065","OBJECT_ID":"2025-134AB","EPOCH":"2026-07-06T01:40:09.361920","CLASSIFICATION_TYPE":"U","MEAN_MOTION":14.79935473,"ECCENTRICITY":0.00007324,"INCLINATION":51.9039,"RA_OF_ASC_NODE":77.247,"ARG_OF_PERICENTER":107.0207,"MEAN_ANOMALY":253.0836,"EPHEMERIS_TYPE":0,"NORAD_CAT_ID":64525,"ELEMENT_SET_NO":999,"REV_AT_EPOCH":5748,"BSTAR":0.00034960758,"MEAN_MOTION_DOT":0.00002445,"MEAN_MOTION_DDOT":0},{"OBJECT_NAME":"KUIPER-00066","OBJECT_ID":"2025-134AC","EPOCH":"2026-07-05T23:14:04.768800","CLASSIFICATION_TYPE":"U","MEAN_MOTION":14.79942115,"ECCENTRICITY":0.0000681,"INCLINATION":51.902,"RA_OF_ASC_NODE":14.9743,"ARG_OF_PERICENTER":106.8847,"MEAN_ANOMALY":253.219,"EPHEMERIS_TYPE":0,"NORAD_CAT_ID":64526,"ELEMENT_SET_NO":999,"REV_AT_EPOCH":5836,"BSTAR":0.00070053443,"MEAN_MOTION_DOT":0.00005124,"MEAN_MOTION_DDOT":0},{"OBJECT_NAME":"KUIPER-00069","OBJECT_ID":"2025-151A","EPOCH":"2026-07-06T03:52:30.279648","CLASSIFICATION_TYPE":"U","MEAN_MOTION":14.79933957,"ECCENTRICITY":0.00008285,"INCLINATION":51.9005,"RA_OF_ASC_NODE":116.7604,"ARG_OF_PERICENTER":92.031,"MEAN_ANOMALY":268.0747,"EPHEMERIS_TYPE":0,"NORAD_CAT_ID":64816,"ELEMENT_SET_NO":999,"REV_AT_EPOCH":5430,"BSTAR":0.0002254654,"MEAN_MOTION_DOT":0.00001498,"MEAN_MOTION_DDOT":0},{"OBJECT_NAME":"KUIPER-00070","OBJECT_ID":"2025-151B","EPOCH":"2026-07-06T04:02:16.757664","CLASSIFICATION_TYPE":"U","MEAN_MOTION":14.7993469,"ECCENTRICITY":0.00007366,"INCLINATION":51.8987,"RA_OF_ASC_NODE":141.6433,"ARG_OF_PERICENTER":81.0769,"MEAN_ANOMALY":279.0277,"EPHEMERIS_TYPE":0,"NORAD_CAT_ID":64817,"ELEMENT_SET_NO":999,"REV_AT_EPOCH":5396,"BSTAR":0.0005066807,"MEAN_MOTION_DOT":0.00003644,"MEAN_MOTION_DDOT":0},{"OBJECT_NAME":"KUIPER-00071","OBJECT_ID":"2025-151C","EPOCH":"2026-07-06T04:06:05.223456","CLASSIFICATION_TYPE":"U","MEAN_MOTION":14.79914468,"ECCENTRICITY":0.00007672,"INCLINATION":51.8999,"RA_OF_ASC_NODE":139.1681,"ARG_OF_PERICENTER":86.1066,"MEAN_ANOMALY":273.9984,"EPHEMERIS_TYPE":0,"NORAD_CAT_ID":64818,"ELEMENT_SET_NO":999,"REV_AT_EPOCH":5281,"BSTAR":0.00051719513,"MEAN_MOTION_DOT":0.00003722,"MEAN_MOTION_DDOT":0},{"OBJECT_NAME":"KUIPER-00072","OBJECT_ID":"2025-151D","EPOCH":"2026-07-06T00:34:03.661536","CLASSIFICATION_TYPE":"U","MEAN_MOTION":14.79922374,"ECCENTRICITY":0.0000799,"INCLINATION":51.8958,"RA_OF_ASC_NODE":119.7668,"ARG_OF_PERICENTER":65.4605,"MEAN_ANOMALY":294.644,"EPHEMERIS_TYPE":0,"NORAD_CAT_ID":64819,"ELEMENT_SET_NO":999,"REV_AT_EPOCH":5307,"BSTAR":0.00063663855,"MEAN_MOTION_DOT":0.00004634,"MEAN_MOTION_DDOT":0},{"OBJECT_NAME":"KUIPER-00073","OBJECT_ID":"2025-151E","EPOCH":"2026-07-06T01:40:17.400576","CLASSIFICATION_TYPE":"U","MEAN_MOTION":14.7991674,"ECCENTRICITY":0.00008705,"INCLINATION":51.8994,"RA_OF_ASC_NODE":139.6012,"ARG_OF_PERICENTER":81.2242,"MEAN_ANOMALY":278.8819,"EPHEMERIS_TYPE":0,"NORAD_CAT_ID":64820,"ELEMENT_SET_NO":999,"REV_AT_EPOCH":5398,"BSTAR":0.0005196873,"MEAN_MOTION_DOT":0.00003741,"MEAN_MOTION_DDOT":0},{"OBJECT_NAME":"KUIPER-00074","OBJECT_ID":"2025-151F","EPOCH":"2026-07-06T06:00:04.000320","CLASSIFICATION_TYPE":"U","MEAN_MOTION":15.9652835,"ECCENTRICITY":0.0001939,"INCLINATION":51.878,"RA_OF_ASC_NODE":45.1362,"ARG_OF_PERICENTER":182.3379,"MEAN_ANOMALY":260.2303,"EPHEMERIS_TYPE":0,"NORAD_CAT_ID":64821,"ELEMENT_SET_NO":999,"REV_AT_EPOCH":599,"BSTAR":0.00039957119,"MEAN_MOTION_DOT":0.00169868,"MEAN_MOTION_DDOT":0.000022645241},{"OBJECT_NAME":"KUIPER-00075","OBJECT_ID":"2025-151G","EPOCH":"2026-07-05T21:11:03.885504","CLASSIFICATION_TYPE":"U","MEAN_MOTION":15.45214009,"ECCENTRICITY":0.0003432,"INCLINATION":51.8688,"RA_OF_ASC_NODE":4.9854,"ARG_OF_PERICENTER":343.1493,"MEAN_ANOMALY":16.9382,"EPHEMERIS_TYPE":0,"NORAD_CAT_ID":64822,"ELEMENT_SET_NO":999,"REV_AT_EPOCH":5465,"BSTAR":0.00094685649,"MEAN_MOTION_DOT":0.00045583,"MEAN_MOTION_DDOT":0},{"OBJECT_NAME":"KUIPER-00076","OBJECT_ID":"2025-151H","EPOCH":"2026-07-06T03:33:04.946688","CLASSIFICATION_TYPE":"U","MEAN_MOTION":14.79930756,"ECCENTRICITY":0.00008043,"INCLINATION":51.8985,"RA_OF_ASC_NODE":129.2726,"ARG_OF_PERICENTER":83.4724,"MEAN_ANOMALY":276.633,"EPHEMERIS_TYPE":0,"NORAD_CAT_ID":64823,"ELEMENT_SET_NO":999,"REV_AT_EPOCH":5295,"BSTAR":0.000084870997,"MEAN_MOTION_DOT":0.00000426,"MEAN_MOTION_DDOT":0},{"OBJECT_NAME":"KUIPER-00077","OBJECT_ID":"2025-151J","EPOCH":"2026-07-06T01:48:04.045248","CLASSIFICATION_TYPE":"U","MEAN_MOTION":14.7994126,"ECCENTRICITY":0.00007485,"INCLINATION":51.9,"RA_OF_ASC_NODE":134.6142,"ARG_OF_PERICENTER":89.1831,"MEAN_ANOMALY":270.9217,"EPHEMERIS_TYPE":0,"NORAD_CAT_ID":64824,"ELEMENT_SET_NO":999,"REV_AT_EPOCH":5287,"BSTAR":0.00057675962,"MEAN_MOTION_DOT":0.00004179,"MEAN_MOTION_DDOT":0},{"OBJECT_NAME":"KUIPER-00078","OBJECT_ID":"2025-151K","EPOCH":"2026-07-06T01:03:19.754496","CLASSIFICATION_TYPE":"U","MEAN_MOTION":14.7992598,"ECCENTRICITY":0.00008238,"INCLINATION":51.8988,"RA_OF_ASC_NODE":132.2298,"ARG_OF_PERICENTER":92.961,"MEAN_ANOMALY":267.1447,"EPHEMERIS_TYPE":0,"NORAD_CAT_ID":64825,"ELEMENT_SET_NO":999,"REV_AT_EPOCH":5290,"BSTAR":0.000093882756,"MEAN_MOTION_DOT":0.00000494,"MEAN_MOTION_DDOT":0},{"OBJECT_NAME":"KUIPER-00079","OBJECT_ID":"2025-151L","EPOCH":"2026-07-06T01:44:10.388544","CLASSIFICATION_TYPE":"U","MEAN_MOTION":14.79939478,"ECCENTRICITY":0.0000693,"INCLINATION":51.8981,"RA_OF_ASC_NODE":137.0659,"ARG_OF_PERICENTER":77.0551,"MEAN_ANOMALY":283.0489,"EPHEMERIS_TYPE":0,"NORAD_CAT_ID":64826,"ELEMENT_SET_NO":999,"REV_AT_EPOCH":5403,"BSTAR":0.00057914231,"MEAN_MOTION_DOT":0.00004197,"MEAN_MOTION_DDOT":0}]}
