[
  {
    "name": "KUIPER-00062",
    "noradId": "64522",
    "line1": "1 64522U 25134Y   26186.94525998  .00005394  00000+0  73586-3 0  9990",
    "line2": "2 64522  51.8953  67.6522 0000701 111.3787 248.7250 14.79943120 57624"
  },
  {
    "name": "KUIPER-00063",
    "noradId": "64523",
    "line1": "1 64523U 25134Z   26187.07223963  .00002316  00000+0  33270-3 0  9990",
    "line2": "2 64523  51.9013  74.6402 0000896 107.2370 252.8690 14.79933954 57533"
  },
  {
    "name": "KUIPER-00064",
    "noradId": "64524",
    "line1": "1 64524U 25134AA  26186.93986915  .00003233  00000+0  45294-3 0  9996",
    "line2": "2 64524  51.9008  72.6477 0000575  99.5822 260.5205 14.79931668 57557"
  },
  {
    "name": "KUIPER-00065",
    "noradId": "64525",
    "line1": "1 64525U 25134AB  26187.06955280  .00002445  00000+0  34961-3 0  9996",
    "line2": "2 64525  51.9039  77.2470 0000732 107.0207 253.0836 14.79935473 57480"
  },
  {
    "name": "KUIPER-00066",
    "noradId": "64526",
    "line1": "1 64526U 25134AC  26186.96811075  .00005124  00000+0  70053-3 0  9997",
    "line2": "2 64526  51.9020  14.9743 0000681 106.8847 253.2190 14.79942115 58366"
  },
  {
    "name": "KUIPER-00069",
    "noradId": "64816",
    "line1": "1 64816U 25151A   26187.16146157  .00001498  00000+0  22547-3 0  9998",
    "line2": "2 64816  51.9005 116.7604 0000828  92.0310 268.0747 14.79933957 54308"
  },
  {
    "name": "KUIPER-00070",
    "noradId": "64817",
    "line1": "1 64817U 25151B   26187.16824951  .00003644  00000+0  50668-3 0  9994",
    "line2": "2 64817  51.8987 141.6433 0000736  81.0769 279.0277 14.79934690 53964"
  },
  {
    "name": "KUIPER-00071",
    "noradId": "64818",
    "line1": "1 64818U 25151C   26187.17089379  .00003722  00000+0  51720-3 0  9990",
    "line2": "2 64818  51.8999 139.1681 0000767  86.1066 273.9984 14.79914468 52817"
  },
  {
    "name": "KUIPER-00072",
    "noradId": "64819",
    "line1": "1 64819U 25151D   26187.02365349  .00004634  00000+0  63664-3 0  9992",
    "line2": "2 64819  51.8958 119.7668 0000799  65.4605 294.6440 14.79922374 53077"
  },
  {
    "name": "KUIPER-00073",
    "noradId": "64820",
    "line1": "1 64820U 25151E   26187.06964584  .00003741  00000+0  51969-3 0  9997",
    "line2": "2 64820  51.8994 139.6012 0000870  81.2242 278.8819 14.79916740 53980"
  },
  {
    "name": "KUIPER-00074",
    "noradId": "64821",
    "line1": "1 64821U 25151F   26187.25004630  .00169868  22645-4  39957-3 0  9996",
    "line2": "2 64821  51.8780  45.1362 0001939 182.3379 260.2303 15.96528350  5991"
  },
  {
    "name": "KUIPER-00075",
    "noradId": "64822",
    "line1": "1 64822U 25151G   26186.88268386  .00045583  00000+0  94686-3 0  9998",
    "line2": "2 64822  51.8688   4.9854 0003432 343.1493  16.9382 15.45214009 54659"
  },
  {
    "name": "KUIPER-00076",
    "noradId": "64823",
    "line1": "1 64823U 25151H   26187.14797392  .00000426  00000+0  84871-4 0  9996",
    "line2": "2 64823  51.8985 129.2726 0000804  83.4724 276.6330 14.79930756 52959"
  },
  {
    "name": "KUIPER-00077",
    "noradId": "64824",
    "line1": "1 64824U 25151J   26187.07504682  .00004179  00000+0  57676-3 0  9998",
    "line2": "2 64824  51.9000 134.6142 0000748  89.1831 270.9217 14.79941260 52874"
  },
  {
    "name": "KUIPER-00078",
    "noradId": "64825",
    "line1": "1 64825U 25151K   26187.04397864  .00000494  00000+0  93883-4 0  9995",
    "line2": "2 64825  51.8988 132.2298 0000823  92.9610 267.1447 14.79925980 52904"
  },
  {
    "name": "KUIPER-00079",
    "noradId": "64826",
    "line1": "1 64826U 25151L   26187.07234246  .00004197  00000+0  57914-3 0  9991",
    "line2": "2 64826  51.8981 137.0659 0000693  77.0551 283.0489 14.79939478 54031"
  }
]